1 00008U          23274.66666667  .00000000  00000-0  00000-0 0 00008
2 00008 097.4152 100.1516 0009336 322.4619 181.5407 15.20925387000019
